{
  "type": "FeatureCollection",
  "features": [
    {
      "type": "Feature",
      "properties": {
        "norad_id": 41890,
        "name": "CYGFM07",
        "group": "weather",
        "lat": -34.91664170036057,
        "lon": -58.2606585983376,
        "alt_km": 416.7535586692902,
        "timestamp": "2025-12-10T21:43:21.729425+00:00",
        "meta_object_name": "CYGFM07",
        "meta_object_id": "2016-078G",
        "meta_epoch": "2025-12-10T12:50:25.836864",
        "meta_mean_motion": 15.49858644,
        "meta_eccentricity": 0.00096823,
        "meta_inclination": 34.9483,
        "meta_ra_of_asc_node": 35.9073,
        "meta_arg_of_pericenter": 196.6766,
        "meta_mean_anomaly": 163.3639,
        "meta_ephemeris_type": 0,
        "meta_classification_type": "U",
        "meta_norad_cat_id": 41890,
        "meta_element_set_no": 999,
        "meta_rev_at_epoch": 49961,
        "meta_bstar": 0.00053787508,
        "meta_mean_motion_dot": 0.0003107,
        "meta_mean_motion_ddot": 0,
        "tle_line1": "1 41890U 16078G   25344.53502126  .00031070  00000+0  53788-3 0  9990",
        "tle_line2": "2 41890  34.9483  35.9073 0009682 196.6766 163.3639 15.49858644499612"
      },
      "geometry": {
        "type": "Point",
        "coordinates": [
          -58.2606585983376,
          -34.91664170036057
        ]
      }
    },
    {
      "type": "Feature",
      "properties": {
        "norad_id": 41891,
        "name": "CYGFM03",
        "group": "weather",
        "lat": 33.78357912734956,
        "lon": 142.0318446845772,
        "alt_km": 410.3994876579418,
        "timestamp": "2025-12-10T21:43:21.729436+00:00",
        "meta_object_name": "CYGFM03",
        "meta_object_id": "2016-078H",
        "meta_epoch": "2025-12-10T13:32:49.186752",
        "meta_mean_motion": 15.49761353,
        "meta_eccentricity": 0.00089683,
        "meta_inclination": 34.9436,
        "meta_ra_of_asc_node": 37.6317,
        "meta_arg_of_pericenter": 184.0085,
        "meta_mean_anomaly": 176.0566,
        "meta_ephemeris_type": 0,
        "meta_classification_type": "U",
        "meta_norad_cat_id": 41891,
        "meta_element_set_no": 999,
        "meta_rev_at_epoch": 49959,
        "meta_bstar": 0.0005287447,
        "meta_mean_motion_dot": 0.00030426,
        "meta_mean_motion_ddot": 0,
        "tle_line1": "1 41891U 16078H   25344.56445818  .00030426  00000+0  52874-3 0  9997",
        "tle_line2": "2 41891  34.9436  37.6317 0008968 184.0085 176.0566 15.49761353499599"
      },
      "geometry": {
        "type": "Point",
        "coordinates": [
          142.0318446845772,
          33.78357912734956
        ]
      }
    },
    {
      "type": "Feature",
      "properties": {
        "norad_id": 43010,
        "name": "FENGYUN 3D",
        "group": "weather",
        "lat": -3.7839191187000223,
        "lon": -48.21271186459252,
        "alt_km": 830.3938809467736,
        "timestamp": "2025-12-10T21:43:21.729447+00:00",
        "meta_object_name": "FENGYUN 3D",
        "meta_object_id": "2017-072A",
        "meta_epoch": "2025-12-10T14:58:29.438976",
        "meta_mean_motion": 14.19681634,
        "meta_eccentricity": 8.194e-05,
        "meta_inclination": 98.9893,
        "meta_ra_of_asc_node": 310.9021,
        "meta_arg_of_pericenter": 188.329,
        "meta_mean_anomaly": 171.7872,
        "meta_ephemeris_type": 0,
        "meta_classification_type": "U",
        "meta_norad_cat_id": 43010,
        "meta_element_set_no": 999,
        "meta_rev_at_epoch": 41823,
        "meta_bstar": 9.703469e-06,
        "meta_mean_motion_dot": -2.5e-07,
        "meta_mean_motion_ddot": 0,
        "tle_line1": "1 43010U 17072A   25344.62395184 -.00000025  00000+0  97035-5 0  9997",
        "tle_line2": "2 43010  98.9893 310.9021 0000819 188.3290 171.7872 14.19681634418235"
      },
      "geometry": {
        "type": "Point",
        "coordinates": [
          -48.21271186459252,
          -3.7839191187000223
        ]
      }
    },
    {
      "type": "Feature",
      "properties": {
        "norad_id": 43013,
        "name": "NOAA 20 (JPSS-1)",
        "group": "weather",
        "lat": 29.78506536675402,
        "lon": 106.28473105673014,
        "alt_km": 824.6356628016674,
        "timestamp": "2025-12-10T21:43:21.729459+00:00",
        "meta_object_name": "NOAA 20 (JPSS-1)",
        "meta_object_id": "2017-073A",
        "meta_epoch": "2025-12-10T14:15:11.702880",
        "meta_mean_motion": 14.19524842,
        "meta_eccentricity": 0.000215,
        "meta_inclination": 98.7596,
        "meta_ra_of_asc_node": 280.9141,
        "meta_arg_of_pericenter": 90.2971,
        "meta_mean_anomaly": 269.8452,
        "meta_ephemeris_type": 0,
        "meta_classification_type": "U",
        "meta_norad_cat_id": 43013,
        "meta_element_set_no": 999,
        "meta_rev_at_epoch": 41771,
        "meta_bstar": 0.00010625452,
        "meta_mean_motion_dot": 1.8e-06,
        "meta_mean_motion_ddot": 0,
        "tle_line1": "1 43013U 17073A   25344.59388545  .00000180  00000+0  10625-3 0  9999",
        "tle_line2": "2 43013  98.7596 280.9141 0002150  90.2971 269.8452 14.19524842417714"
      },
      "geometry": {
        "type": "Point",
        "coordinates": [
          106.28473105673014,
          29.78506536675402
        ]
      }
    },
    {
      "type": "Feature",
      "properties": {
        "norad_id": 43226,
        "name": "GOES 17",
        "group": "weather",
        "lat": -0.3414013256561445,
        "lon": -43.75971399035789,
        "alt_km": 35775.30842900219,
        "timestamp": "2025-12-10T21:43:21.729471+00:00",
        "meta_object_name": "GOES 17",
        "meta_object_id": "2018-022A",
        "meta_epoch": "2025-12-10T07:27:38.822400",
        "meta_mean_motion": 1.00271623,
        "meta_eccentricity": 0.00033712,
        "meta_inclination": 0.4539,
        "meta_ra_of_asc_node": 89.1426,
        "meta_arg_of_pericenter": 187.0405,
        "meta_mean_anomaly": 185.5217,
        "meta_ephemeris_type": 0,
        "meta_classification_type": "U",
        "meta_norad_cat_id": 43226,
        "meta_element_set_no": 999,
        "meta_rev_at_epoch": 2853,
        "meta_bstar": 0,
        "meta_mean_motion_dot": -1.79e-06,
        "meta_mean_motion_ddot": 0,
        "tle_line1": "1 43226U 18022A   25344.31086600 -.00000179  00000+0  00000+0 0  9998",
        "tle_line2": "2 43226   0.4539  89.1426 0003371 187.0405 185.5217  1.00271623 28538"
      },
      "geometry": {
        "type": "Point",
        "coordinates": [
          -43.75971399035789,
          -0.3414013256561445
        ]
      }
    },
    {
      "type": "Feature",
      "properties": {
        "norad_id": 43491,
        "name": "FENGYUN 2H",
        "group": "weather",
        "lat": 1.77128032085152,
        "lon": 125.016226787324,
        "alt_km": 35792.56312351575,
        "timestamp": "2025-12-10T21:43:21.729484+00:00",
        "meta_object_name": "FENGYUN 2H",
        "meta_object_id": "2018-050A",
        "meta_epoch": "2025-12-10T16:18:36.395424",
        "meta_mean_motion": 1.00271066,
        "meta_eccentricity": 0.00029224,
        "meta_inclination": 2.5457,
        "meta_ra_of_asc_node": 81.3445,
        "meta_arg_of_pericenter": 165.3287,
        "meta_mean_anomaly": 156.9904,
        "meta_ephemeris_type": 0,
        "meta_classification_type": "U",
        "meta_norad_cat_id": 43491,
        "meta_element_set_no": 999,
        "meta_rev_at_epoch": 2754,
        "meta_bstar": 0,
        "meta_mean_motion_dot": -1.25e-06,
        "meta_mean_motion_ddot": 0,
        "tle_line1": "1 43491U 18050A   25344.67958791 -.00000125  00000+0  00000+0 0  9992",
        "tle_line2": "2 43491   2.5457  81.3445 0002922 165.3287 156.9904  1.00271066 27543"
      },
      "geometry": {
        "type": "Point",
        "coordinates": [
          125.016226787324,
          1.77128032085152
        ]
      }
    },
    {
      "type": "Feature",
      "properties": {
        "norad_id": 43689,
        "name": "METOP-C",
        "group": "weather",
        "lat": -78.3271075564634,
        "lon": 90.48280912383753,
        "alt_km": 828.1944236304671,
        "timestamp": "2025-12-10T21:43:21.729496+00:00",
        "meta_object_name": "METOP-C",
        "meta_object_id": "2018-087A",
        "meta_epoch": "2025-12-10T13:39:44.396640",
        "meta_mean_motion": 14.21510557,
        "meta_eccentricity": 0.00014346,
        "meta_inclination": 98.6933,
        "meta_ra_of_asc_node": 42.3721,
        "meta_arg_of_pericenter": 46.3115,
        "meta_mean_anomaly": 313.8181,
        "meta_ephemeris_type": 0,
        "meta_classification_type": "U",
        "meta_norad_cat_id": 43689,
        "meta_element_set_no": 999,
        "meta_rev_at_epoch": 36803,
        "meta_bstar": 0.00011958964,
        "meta_mean_motion_dot": 2.18e-06,
        "meta_mean_motion_ddot": 0,
        "tle_line1": "1 43689U 18087A   25344.56926385  .00000218  00000+0  11959-3 0  9994",
        "tle_line2": "2 43689  98.6933  42.3721 0001434  46.3115 313.8181 14.21510557368037"
      },
      "geometry": {
        "type": "Point",
        "coordinates": [
          90.48280912383753,
          -78.3271075564634
        ]
      }
    }
  ]
}